[{"OBJECT_NAME":"STARLINK-3926","OBJECT_ID":"2022-051L","EPOCH":"2026-03-09T11:49:52.594176","MEAN_MOTION":15.0884103,"ECCENTRICITY":0.00013697,"INCLINATION":53.2168,"RA_OF_ASC_NODE":130.0029,"ARG_OF_PERICENTER":87.579,"MEAN_ANOMALY":272.5359,"EPHEMERIS_TYPE":0,"CLASSIFICATION_TYPE":"U","NORAD_CAT_ID":52543,"ELEMENT_SET_NO":999,"REV_AT_EPOCH":21141,"BSTAR":-1.0370663e-5,"MEAN_MOTION_DOT":-4.53e-6,"MEAN_MOTION_DDOT":0},{"OBJECT_NAME":"CZ-6A DEB","OBJECT_ID":"2024-126C","EPOCH":"2026-03-09T22:45:09.534528","MEAN_MOTION":15.08339588,"ECCENTRICITY":0.00034995,"INCLINATION":97.8272,"RA_OF_ASC_NODE":88.0703,"ARG_OF_PERICENTER":249.9832,"MEAN_ANOMALY":110.1019,"EPHEMERIS_TYPE":0,"CLASSIFICATION_TYPE":"U","NORAD_CAT_ID":60213,"ELEMENT_SET_NO":999,"REV_AT_EPOCH":9177,"BSTAR":0.0010886629,"MEAN_MOTION_DOT":0.00016868,"MEAN_MOTION_DDOT":0}]
